CTC1_L_00355001-01
1 40099U 22993XT  26037.47805556  .00000000  00000+0  00000-0 0  9994
2 40099  75.0000   0.0000 0000000   0.0000   0.0000 13.72670174    15
CTC1_L_00355001-02
1 40100U 26127SD  26037.47805556  .00000000  00000+0  00000-0 0  9990
2 40100  75.0000   0.0000 0000000   0.0000  90.0000 13.72670174    17
CTC1_L_00355001-03
1 40101U 22480KI  26037.47805556  .00000000  00000+0  00000-0 0  9999
2 40101  75.0000   0.0000 0000000   0.0000 180.0000 13.72670174    18
CTC1_L_00355001-04
1 40102U 25615MQ  26037.47805556  .00000000  00000+0  00000-0 0  9993
2 40102  75.0000   0.0000 0000000   0.0000 270.0000 13.72670174    19
CTC1_L_00355002-01
1 40103U 24264EL  26037.47805556  .00000000  00000+0  00000-0 0  9993
2 40103  75.0000  12.0000 0000000   0.0000  12.0000 13.72670174    17
CTC1_L_00355002-02
1 40104U 26764BC  26037.47805556  .00000000  00000+0  00000-0 0  9991
2 40104  75.0000  12.0000 0000000   0.0000 102.0000 13.72670174    18
CTC1_L_00355002-03
1 40105U 22434NF  26037.47805556  .00000000  00000+0  00000-0 0  9992
2 40105  75.0000  12.0000 0000000   0.0000 192.0000 13.72670174    18
CTC1_L_00355002-04
1 40106U 25051AE  26037.47805556  .00000000  00000+0  00000-0 0  9991
2 40106  75.0000  12.0000 0000000   0.0000 282.0000 13.72670174    19
CTC1_L_00355003-01
1 40107U 26026RF  26037.47805556  .00000000  00000+0  00000-0 0  9995
2 40107  75.0000  24.0000 0000000   0.0000  24.0000 13.72670174    17
CTC1_L_00355003-02
1 40108U 23962XK  26037.47805556  .00000000  00000+0  00000-0 0  9992
2 40108  75.0000  24.0000 0000000   0.0000 114.0000 13.72670174    18
CTC1_L_00355003-03
1 40109U 24759SQ  26037.47805556  .00000000  00000+0  00000-0 0  9998
2 40109  75.0000  24.0000 0000000   0.0000 204.0000 13.72670174    19
CTC1_L_00355003-04
1 40110U 26151WX  26037.47805556  .00000000  00000+0  00000-0 0  9998
2 40110  75.0000  24.0000 0000000   0.0000 294.0000 13.72670174    10
CTC1_L_00355004-01
1 40111U 24588UV  26037.47805556  .00000000  00000+0  00000-0 0  9991
2 40111  75.0000  36.0000 0000000   0.0000  36.0000 13.72670174    18
CTC1_L_00355004-02
1 40112U 25131WS  26037.47805556  .00000000  00000+0  00000-0 0  9997
2 40112  75.0000  36.0000 0000000   0.0000 126.0000 13.72670174    19
CTC1_L_00355004-03
1 40113U 24717EA  26037.47805556  .00000000  00000+0  00000-0 0  9997
2 40113  75.0000  36.0000 0000000   0.0000 216.0000 13.72670174    10
CTC1_L_00355004-04
1 40114U 23983QG  26037.47805556  .00000000  00000+0  00000-0 0  9992
2 40114  75.0000  36.0000 0000000   0.0000 306.0000 13.72670174    11
CTC1_L_00355005-01
1 40115U 25123CO  26037.47805556  .00000000  00000+0  00000-0 0  9991
2 40115  75.0000  48.0000 0000000   0.0000  48.0000 13.72670174    18
CTC1_L_00355005-02
1 40116U 23763BD  26037.47805556  .00000000  00000+0  00000-0 0  9990
2 40116  75.0000  48.0000 0000000   0.0000 138.0000 13.72670174    19
CTC1_L_00355005-03
1 40117U 26025MA  26037.47805556  .00000000  00000+0  00000-0 0  9995
2 40117  75.0000  48.0000 0000000   0.0000 228.0000 13.72670174    10
CTC1_L_00355005-04
1 40118U 24072IB  26037.47805556  .00000000  00000+0  00000-0 0  9996
2 40118  75.0000  48.0000 0000000   0.0000 318.0000 13.72670174    11
CTC1_L_00355006-01
1 40119U 24864SM  26037.47805556  .00000000  00000+0  00000-0 0  9996
2 40119  75.0000  60.0000 0000000   0.0000  60.0000 13.72670174    10
CTC1_L_00355006-02
1 40120U 26917OU  26037.47805556  .00000000  00000+0  00000-0 0  9999
2 40120  75.0000  60.0000 0000000   0.0000 150.0000 13.72670174    12
CTC1_L_00355006-03
1 40121U 23930SL  26037.47805556  .00000000  00000+0  00000-0 0  9992
2 40121  75.0000  60.0000 0000000   0.0000 240.0000 13.72670174    13
CTC1_L_00355006-04
1 40122U 25629YQ  26037.47805556  .00000000  00000+0  00000-0 0  9990
2 40122  75.0000  60.0000 0000000   0.0000 330.0000 13.72670174    14
CTC1_L_00355007-01
1 40123U 23097LY  26037.47805556  .00000000  00000+0  00000-0 0  9998
2 40123  75.0000  72.0000 0000000   0.0000  72.0000 13.72670174    11
CTC1_L_00355007-02
1 40124U 22136XH  26037.47805556  .00000000  00000+0  00000-0 0  9992
2 40124  75.0000  72.0000 0000000   0.0000 162.0000 13.72670174    12
CTC1_L_00355007-03
1 40125U 24207EF  26037.47805556  .00000000  00000+0  00000-0 0  9994
2 40125  75.0000  72.0000 0000000   0.0000 252.0000 13.72670174    13
CTC1_L_00355007-04
1 40126U 25137FP  26037.47805556  .00000000  00000+0  00000-0 0  9998
2 40126  75.0000  72.0000 0000000   0.0000 342.0000 13.72670174    14
CTC1_L_00355008-01
1 40127U 22378IE  26037.47805556  .00000000  00000+0  00000-0 0  9993
2 40127  75.0000  84.0000 0000000   0.0000  84.0000 13.72670174    11
CTC1_L_00355008-02
1 40128U 25061NQ  26037.47805556  .00000000  00000+0  00000-0 0  9996
2 40128  75.0000  84.0000 0000000   0.0000 174.0000 13.72670174    12
CTC1_L_00355008-03
1 40129U 23752LH  26037.47805556  .00000000  00000+0  00000-0 0  9992
2 40129  75.0000  84.0000 0000000   0.0000 264.0000 13.72670174    13
CTC1_L_00355008-04
1 40130U 25215PV  26037.47805556  .00000000  00000+0  00000-0 0  9990
2 40130  75.0000  84.0000 0000000   0.0000 354.0000 13.72670174    15
CTC1_L_00355009-01
1 40131U 26794FR  26037.47805556  .00000000  00000+0  00000-0 0  9994
2 40131  75.0000  96.0000 0000000   0.0000  96.0000 13.72670174    12
CTC1_L_00355009-02
1 40132U 23081QU  26037.47805556  .00000000  00000+0  00000-0 0  9991
2 40132  75.0000  96.0000 0000000   0.0000 186.0000 13.72670174    13
CTC1_L_00355009-03
1 40133U 25928KQ  26037.47805556  .00000000  00000+0  00000-0 0  9994
2 40133  75.0000  96.0000 0000000   0.0000 276.0000 13.72670174    14
CTC1_L_00355009-04
1 40134U 22838HG  26037.47805556  .00000000  00000+0  00000-0 0  9992
2 40134  75.0000  96.0000 0000000   0.0000   6.0000 13.72670174    16
CTC1_L_00355010-01
1 40135U 22194FE  26037.47805556  .00000000  00000+0  00000-0 0  9998
2 40135  75.0000 108.0000 0000000   0.0000 108.0000 13.72670174    14
CTC1_L_00355010-02
1 40136U 25500IM  26037.47805556  .00000000  00000+0  00000-0 0  9993
2 40136  75.0000 108.0000 0000000   0.0000 198.0000 13.72670174    14
CTC1_L_00355010-03
1 40137U 24182RW  26037.47805556  .00000000  00000+0  00000-0 0  9999
2 40137  75.0000 108.0000 0000000   0.0000 288.0000 13.72670174    15
CTC1_L_00355010-04
1 40138U 22397GV  26037.47805556  .00000000  00000+0  00000-0 0  9996
2 40138  75.0000 108.0000 0000000   0.0000  18.0000 13.72670174    17
CTC1_L_00355011-01
1 40139U 25425C   26037.47805556  .00000000  00000+0  00000-0 0  9992
2 40139  75.0000 120.0000 0000000   0.0000 120.0000 13.72670174    16
CTC1_L_00355011-02
1 40140U 24906CL  26037.47805556  .00000000  00000+0  00000-0 0  9997
2 40140  75.0000 120.0000 0000000   0.0000 210.0000 13.72670174    18
CTC1_L_00355011-03
1 40141U 25772AA  26037.47805556  .00000000  00000+0  00000-0 0  9990
2 40141  75.0000 120.0000 0000000   0.0000 300.0000 13.72670174    19
CTC1_L_00355011-04
1 40142U 24495IT  26037.47805556  .00000000  00000+0  00000-0 0  9992
2 40142  75.0000 120.0000 0000000   0.0000  30.0000 13.72670174    10
CTC1_L_00355012-01
1 40143U 25450HH  26037.47805556  .00000000  00000+0  00000-0 0  9995
2 40143  75.0000 132.0000 0000000   0.0000 132.0000 13.72670174    17
CTC1_L_00355012-02
1 40144U 22189MY  26037.47805556  .00000000  00000+0  00000-0 0  9992
2 40144  75.0000 132.0000 0000000   0.0000 222.0000 13.72670174    18
CTC1_L_00355012-03
1 40145U 22985A   26037.47805556  .00000000  00000+0  00000-0 0  9997
2 40145  75.0000 132.0000 0000000   0.0000 312.0000 13.72670174    19
CTC1_L_00355012-04
1 40146U 26812FH  26037.47805556  .00000000  00000+0  00000-0 0  9991
2 40146  75.0000 132.0000 0000000   0.0000  42.0000 13.72670174    10
CTC1_L_00355013-01
1 40147U 26841HS  26037.47805556  .00000000  00000+0  00000-0 0  9994
2 40147  75.0000 144.0000 0000000   0.0000 144.0000 13.72670174    17
CTC1_L_00355013-02
1 40148U 25351KM  26037.47805556  .00000000  00000+0  00000-0 0  9990
2 40148  75.0000 144.0000 0000000   0.0000 234.0000 13.72670174    18
CTC1_L_00355013-03
1 40149U 23974GX  26037.47805556  .00000000  00000+0  00000-0 0  9990
2 40149  75.0000 144.0000 0000000   0.0000 324.0000 13.72670174    19
CTC1_L_00355013-04
1 40150U 24058PG  26037.47805556  .00000000  00000+0  00000-0 0  9996
2 40150  75.0000 144.0000 0000000   0.0000  54.0000 13.72670174    11
CTC1_L_00355014-01
1 40151U 22510XC  26037.47805556  .00000000  00000+0  00000-0 0  9998
2 40151  75.0000 156.0000 0000000   0.0000 156.0000 13.72670174    18
CTC1_L_00355014-02
1 40152U 22945IV  26037.47805556  .00000000  00000+0  00000-0 0  9991
2 40152  75.0000 156.0000 0000000   0.0000 246.0000 13.72670174    19
CTC1_L_00355014-03
1 40153U 26982DY  26037.47805556  .00000000  00000+0  00000-0 0  9997
2 40153  75.0000 156.0000 0000000   0.0000 336.0000 13.72670174    10
CTC1_L_00355014-04
1 40154U 24109WF  26037.47805556  .00000000  00000+0  00000-0 0  9997
2 40154  75.0000 156.0000 0000000   0.0000  66.0000 13.72670174    11
CTC1_L_00355015-01
1 40155U 22805PP  26037.47805556  .00000000  00000+0  00000-0 0  9999
2 40155  75.0000 168.0000 0000000   0.0000 168.0000 13.72670174    18
CTC1_L_00355015-02
1 40156U 22132QJ  26037.47805556  .00000000  00000+0  00000-0 0  9993
2 40156  75.0000 168.0000 0000000   0.0000 258.0000 13.72670174    19
CTC1_L_00355015-03
1 40157U 24941ZR  26037.47805556  .00000000  00000+0  00000-0 0  9994
2 40157  75.0000 168.0000 0000000   0.0000 348.0000 13.72670174    10
CTC1_L_00355015-04
1 40158U 24384VD  26037.47805556  .00000000  00000+0  00000-0 0  9996
2 40158  75.0000 168.0000 0000000   0.0000  78.0000 13.72670174    11
CTC1_L_00355016-01
1 40159U 25850ZF  26037.47805556  .00000000  00000+0  00000-0 0  9996
2 40159  75.0000 180.0000 0000000   0.0000 180.0000 13.72670174    10
CTC1_L_00355016-02
1 40160U 23728VO  26037.47805556  .00000000  00000+0  00000-0 0  9990
2 40160  75.0000 180.0000 0000000   0.0000 270.0000 13.72670174    12
